{
  "type": "FeatureCollection",
  "features": [
    {
      "type": "Feature",
      "properties": {
        "norad_id": 36585,
        "name": "GPS BIIF-1  (PRN 25)",
        "group": "gnss",
        "lat": -31.75326669761068,
        "lon": 62.83595240406806,
        "alt_km": 20490.21743903491,
        "timestamp": "2025-12-03T19:33:07.218332+00:00",
        "meta_object_name": "GPS BIIF-1  (PRN 25)",
        "meta_object_id": "2010-022A",
        "meta_epoch": "2025-12-03T06:19:07.093056",
        "meta_mean_motion": 2.00552613,
        "meta_eccentricity": 0.0125712,
        "meta_inclination": 54.3021,
        "meta_ra_of_asc_node": 216.4561,
        "meta_arg_of_pericenter": 64.9696,
        "meta_mean_anomaly": 116.7502,
        "meta_ephemeris_type": 0,
        "meta_classification_type": "U",
        "meta_norad_cat_id": 36585,
        "meta_element_set_no": 999,
        "meta_rev_at_epoch": 11366,
        "meta_bstar": 0,
        "meta_mean_motion_dot": 7.1e-07,
        "meta_mean_motion_ddot": 0,
        "tle_line1": "1 36585U 10022A   25337.26327654  .00000071  00000+0  00000+0 0  9993",
        "tle_line2": "2 36585  54.3021 216.4561 0125712  64.9696 116.7502  2.00552613113660"
      },
      "geometry": {
        "type": "Point",
        "coordinates": [
          62.83595240406806,
          -31.75326669761068
        ]
      }
    },
    {
      "type": "Feature",
      "properties": {
        "norad_id": 36828,
        "name": "BEIDOU-2 IGSO-1 (C06)",
        "group": "gnss",
        "lat": -38.59952128574809,
        "lon": 129.60628880023881,
        "alt_km": 35802.73427247055,
        "timestamp": "2025-12-03T19:33:07.218345+00:00",
        "meta_object_name": "BEIDOU-2 IGSO-1 (C06)",
        "meta_object_id": "2010-036A",
        "meta_epoch": "2025-12-03T10:50:44.942784",
        "meta_mean_motion": 1.00278626,
        "meta_eccentricity": 0.0051265,
        "meta_inclination": 54.2837,
        "meta_ra_of_asc_node": 164.7326,
        "meta_arg_of_pericenter": 215.7728,
        "meta_mean_anomaly": 322.4753,
        "meta_ephemeris_type": 0,
        "meta_classification_type": "U",
        "meta_norad_cat_id": 36828,
        "meta_element_set_no": 999,
        "meta_rev_at_epoch": 5613,
        "meta_bstar": 0,
        "meta_mean_motion_dot": -2.4e-07,
        "meta_mean_motion_ddot": 0,
        "tle_line1": "1 36828U 10036A   25337.45190906 -.00000024  00000+0  00000+0 0  9996",
        "tle_line2": "2 36828  54.2837 164.7326 0051265 215.7728 322.4753  1.00278626 56131"
      },
      "geometry": {
        "type": "Point",
        "coordinates": [
          129.60628880023881,
          -38.59952128574809
        ]
      }
    },
    {
      "type": "Feature",
      "properties": {
        "norad_id": 37210,
        "name": "BEIDOU-2 G4 (C04)",
        "group": "gnss",
        "lat": 3.133467676959388,
        "lon": 166.11407947295618,
        "alt_km": 35787.51597011885,
        "timestamp": "2025-12-03T19:33:07.218357+00:00",
        "meta_object_name": "BEIDOU-2 G4 (C04)",
        "meta_object_id": "2010-057A",
        "meta_epoch": "2025-12-03T12:01:38.692992",
        "meta_mean_motion": 1.00271318,
        "meta_eccentricity": 0.0010914,
        "meta_inclination": 3.16,
        "meta_ra_of_asc_node": 69.961,
        "meta_arg_of_pericenter": 188.4016,
        "meta_mean_anomaly": 154.7087,
        "meta_ephemeris_type": 0,
        "meta_classification_type": "U",
        "meta_norad_cat_id": 37210,
        "meta_element_set_no": 999,
        "meta_rev_at_epoch": 5532,
        "meta_bstar": 0,
        "meta_mean_motion_dot": -9.5e-07,
        "meta_mean_motion_ddot": 0,
        "tle_line1": "1 37210U 10057A   25337.50114228 -.00000095  00000+0  00000+0 0  9992",
        "tle_line2": "2 37210   3.1600  69.9610 0010914 188.4016 154.7087  1.00271318 55329"
      },
      "geometry": {
        "type": "Point",
        "coordinates": [
          166.11407947295618,
          3.133467676959388
        ]
      }
    },
    {
      "type": "Feature",
      "properties": {
        "norad_id": 37256,
        "name": "BEIDOU-2 IGSO-2 (C07)",
        "group": "gnss",
        "lat": -13.981455785267745,
        "lon": 107.19820274556652,
        "alt_km": 35585.67781608623,
        "timestamp": "2025-12-03T19:33:07.218369+00:00",
        "meta_object_name": "BEIDOU-2 IGSO-2 (C07)",
        "meta_object_id": "2010-068A",
        "meta_epoch": "2025-12-02T18:32:21.656832",
        "meta_mean_motion": 1.00289076,
        "meta_eccentricity": 0.00492778,
        "meta_inclination": 47.9063,
        "meta_ra_of_asc_node": 274.2734,
        "meta_arg_of_pericenter": 216.2016,
        "meta_mean_anomaly": 326.6202,
        "meta_ephemeris_type": 0,
        "meta_classification_type": "U",
        "meta_norad_cat_id": 37256,
        "meta_element_set_no": 999,
        "meta_rev_at_epoch": 5482,
        "meta_bstar": 0,
        "meta_mean_motion_dot": -2.27e-06,
        "meta_mean_motion_ddot": 0,
        "tle_line1": "1 37256U 10068A   25336.77247288 -.00000227  00000+0  00000+0 0  9992",
        "tle_line2": "2 37256  47.9063 274.2734 0049277 216.2016 326.6202  1.00289076 54823"
      },
      "geometry": {
        "type": "Point",
        "coordinates": [
          107.19820274556652,
          -13.981455785267745
        ]
      }
    },
    {
      "type": "Feature",
      "properties": {
        "norad_id": 37384,
        "name": "BEIDOU-2 IGSO-3 (C08)",
        "group": "gnss",
        "lat": 56.96632467775443,
        "lon": 96.33155318427704,
        "alt_km": 35842.85866363529,
        "timestamp": "2025-12-03T19:33:07.218381+00:00",
        "meta_object_name": "BEIDOU-2 IGSO-3 (C08)",
        "meta_object_id": "2011-013A",
        "meta_epoch": "2025-11-29T21:04:05.094336",
        "meta_mean_motion": 1.00273417,
        "meta_eccentricity": 0.00356655,
        "meta_inclination": 62.1255,
        "meta_ra_of_asc_node": 42.0418,
        "meta_arg_of_pericenter": 186.0158,
        "meta_mean_anomaly": 264.7363,
        "meta_ephemeris_type": 0,
        "meta_classification_type": "U",
        "meta_norad_cat_id": 37384,
        "meta_element_set_no": 999,
        "meta_rev_at_epoch": 5366,
        "meta_bstar": 0,
        "meta_mean_motion_dot": -1.94e-06,
        "meta_mean_motion_ddot": 0,
        "tle_line1": "1 37384U 11013A   25333.87783674 -.00000194  00000+0  00000+0 0  9990",
        "tle_line2": "2 37384  62.1255  42.0418 0035665 186.0158 264.7363  1.00273417 53667"
      },
      "geometry": {
        "type": "Point",
        "coordinates": [
          96.33155318427704,
          56.96632467775443
        ]
      }
    },
    {
      "type": "Feature",
      "properties": {
        "norad_id": 37605,
        "name": "GSAT-8 (GAGAN/PRN 127)",
        "group": "gnss",
        "lat": -0.6085829839844983,
        "lon": 61.28370807456907,
        "alt_km": 35821.69793179651,
        "timestamp": "2025-12-03T19:33:07.218394+00:00",
        "meta_object_name": "GSAT-8 (GAGAN/PRN 127)",
        "meta_object_id": "2011-022A",
        "meta_epoch": "2025-12-03T10:35:38.891040",
        "meta_mean_motion": 1.00272718,
        "meta_eccentricity": 0.0009016,
        "meta_inclination": 1.6237,
        "meta_ra_of_asc_node": 84.294,
        "meta_arg_of_pericenter": 177.3552,
        "meta_mean_anomaly": 24.8753,
        "meta_ephemeris_type": 0,
        "meta_classification_type": "U",
        "meta_norad_cat_id": 37605,
        "meta_element_set_no": 999,
        "meta_rev_at_epoch": 5125,
        "meta_bstar": 0,
        "meta_mean_motion_dot": 1.02e-06,
        "meta_mean_motion_ddot": 0,
        "tle_line1": "1 37605U 11022A   25337.44142235  .00000102  00000+0  00000+0 0  9993",
        "tle_line2": "2 37605   1.6237  84.2940 0009016 177.3552  24.8753  1.00272718 51255"
      },
      "geometry": {
        "type": "Point",
        "coordinates": [
          61.28370807456907,
          -0.6085829839844983
        ]
      }
    },
    {
      "type": "Feature",
      "properties": {
        "norad_id": 37763,
        "name": "BEIDOU-2 IGSO-4 (C09)",
        "group": "gnss",
        "lat": -47.91408427911986,
        "lon": 115.31319054430641,
        "alt_km": 35505.68338394045,
        "timestamp": "2025-12-03T19:33:07.218406+00:00",
        "meta_object_name": "BEIDOU-2 IGSO-4 (C09)",
        "meta_object_id": "2011-038A",
        "meta_epoch": "2025-12-01T12:32:09.960864",
        "meta_mean_motion": 1.00284074,
        "meta_eccentricity": 0.01487808,
        "meta_inclination": 54.5808,
        "meta_ra_of_asc_node": 167.4476,
        "meta_arg_of_pericenter": 230.2031,
        "meta_mean_anomaly": 315.0387,
        "meta_ephemeris_type": 0,
        "meta_classification_type": "U",
        "meta_norad_cat_id": 37763,
        "meta_element_set_no": 999,
        "meta_rev_at_epoch": 5266,
        "meta_bstar": 0,
        "meta_mean_motion_dot": 1.01e-06,
        "meta_mean_motion_ddot": 0,
        "tle_line1": "1 37763U 11038A   25335.52233751  .00000101  00000+0  00000+0 0  9995",
        "tle_line2": "2 37763  54.5808 167.4476 0148780 230.2031 315.0387  1.00284074 52664"
      },
      "geometry": {
        "type": "Point",
        "coordinates": [
          115.31319054430641,
          -47.91408427911986
        ]
      }
    }
  ]
}